[{"OBJECT_NAME":"EKRAN 11","OBJECT_ID":"1983-100A","EPOCH":"2026-03-14T02:31:35.035104","MEAN_MOTION":1.00310512,"ECCENTRICITY":0.00039944,"INCLINATION":7.9719,"RA_OF_ASC_NODE":305.1747,"ARG_OF_PERICENTER":350.1177,"MEAN_ANOMALY":9.8264,"EPHEMERIS_TYPE":0,"CLASSIFICATION_TYPE":"U","NORAD_CAT_ID":14377,"ELEMENT_SET_NO":999,"REV_AT_EPOCH":4642,"BSTAR":0,"MEAN_MOTION_DOT":-2.86e-6,"MEAN_MOTION_DDOT":0},{"OBJECT_NAME":"INTELSAT 507","OBJECT_ID":"1983-105A","EPOCH":"2026-03-14T06:38:18.119904","MEAN_MOTION":0.99690251,"ECCENTRICITY":0.00035512,"INCLINATION":12.0833,"RA_OF_ASC_NODE":331.775,"ARG_OF_PERICENTER":51.8696,"MEAN_ANOMALY":126.986,"EPHEMERIS_TYPE":0,"CLASSIFICATION_TYPE":"U","NORAD_CAT_ID":14421,"ELEMENT_SET_NO":999,"REV_AT_EPOCH":13628,"BSTAR":0,"MEAN_MOTION_DOT":5.8e-7,"MEAN_MOTION_DDOT":0},{"OBJECT_NAME":"RADUGA 14","OBJECT_ID":"1984-016A","EPOCH":"2026-03-14T19:48:55.805760","MEAN_MOTION":1.00298047,"ECCENTRICITY":6.877e-5,"INCLINATION":8.7526,"RA_OF_ASC_NODE":311.4161,"ARG_OF_PERICENTER":117.2139,"MEAN_ANOMALY":112.8604,"EPHEMERIS_TYPE":0,"CLASSIFICATION_TYPE":"U","NORAD_CAT_ID":14725,"ELEMENT_SET_NO":999,"REV_AT_EPOCH":11715,"BSTAR":0,"MEAN_MOTION_DOT":-7.2e-7,"MEAN_MOTION_DDOT":0},{"OBJECT_NAME":"COSMOS 1540","OBJECT_ID":"1984-022A","EPOCH":"2026-03-14T21:22:07.065120","MEAN_MOTION":1.00283018,"ECCENTRICITY":0.00075714,"INCLINATION":9.5183,"RA_OF_ASC_NODE":305.2828,"ARG_OF_PERICENTER":301.2762,"MEAN_ANOMALY":318.7593,"EPHEMERIS_TYPE":0,"CLASSIFICATION_TYPE":"U","NORAD_CAT_ID":14783,"ELEMENT_SET_NO":999,"REV_AT_EPOCH":12007,"BSTAR":0,"MEAN_MOTION_DOT":-7.3e-7,"MEAN_MOTION_DDOT":0},{"OBJECT_NAME":"COSMOS 1546","OBJECT_ID":"1984-031A","EPOCH":"2026-03-14T19:51:14.495904","MEAN_MOTION":1.00257434,"ECCENTRICITY":0.00252489,"INCLINATION":8.858,"RA_OF_ASC_NODE":312.064,"ARG_OF_PERICENTER":13.5862,"MEAN_ANOMALY":220.4603,"EPHEMERIS_TYPE":0,"CLASSIFICATION_TYPE":"U","NORAD_CAT_ID":14867,"ELEMENT_SET_NO":999,"REV_AT_EPOCH":4642,"BSTAR":0,"MEAN_MOTION_DOT":-1.02e-6,"MEAN_MOTION_DDOT":0},{"OBJECT_NAME":"STTW-T2","OBJECT_ID":"1984-035A","EPOCH":"2026-03-14T12:34:26.276736","MEAN_MOTION":1.00264525,"ECCENTRICITY":0.00055688,"INCLINATION":9.6181,"RA_OF_ASC_NODE":318.4942,"ARG_OF_PERICENTER":195.5351,"MEAN_ANOMALY":341.502,"EPHEMERIS_TYPE":0,"CLASSIFICATION_TYPE":"U","NORAD_CAT_ID":14899,"ELEMENT_SET_NO":999,"REV_AT_EPOCH":4642,"BSTAR":0,"MEAN_MOTION_DOT":-3.21e-6,"MEAN_MOTION_DDOT":0},{"OBJECT_NAME":"GORIZONT 9","OBJECT_ID":"1984-041A","EPOCH":"2026-03-14T19:43:02.706240","MEAN_MOTION":1.00316356,"ECCENTRICITY":0.0005694,"INCLINATION":8.9265,"RA_OF_ASC_NODE":312.9366,"ARG_OF_PERICENTER":296.5224,"MEAN_ANOMALY":303.8305,"EPHEMERIS_TYPE":0,"CLASSIFICATION_TYPE":"U","NORAD_CAT_ID":14940,"ELEMENT_SET_NO":999,"REV_AT_EPOCH":12099,"BSTAR":0,"MEAN_MOTION_DOT":-2.03e-6,"MEAN_MOTION_DDOT":0},{"OBJECT_NAME":"ZHONGXING-5","OBJECT_ID":"1984-049A","EPOCH":"2026-03-14T08:49:17.095008","MEAN_MOTION":0.99985785,"ECCENTRICITY":0.00096212,"INCLINATION":14.3903,"RA_OF_ASC_NODE":349.0303,"ARG_OF_PERICENTER":249.9502,"MEAN_ANOMALY":355.7669,"EPHEMERIS_TYPE":0,"CLASSIFICATION_TYPE":"U","NORAD_CAT_ID":14985,"ELEMENT_SET_NO":999,"REV_AT_EPOCH":13035,"BSTAR":0,"MEAN_MOTION_DOT":-2.55e-6,"MEAN_MOTION_DDOT":0},{"OBJECT_NAME":"RADUGA 15","OBJECT_ID":"1984-063A","EPOCH":"2026-03-14T16:53:50.817696","MEAN_MOTION":1.00181635,"ECCENTRICITY":0.00018103,"INCLINATION":8.9117,"RA_OF_ASC_NODE":312.4016,"ARG_OF_PERICENTER":251.2898,"MEAN_ANOMALY":323.0239,"EPHEMERIS_TYPE":0,"CLASSIFICATION_TYPE":"U","NORAD_CAT_ID":15057,"ELEMENT_SET_NO":999,"REV_AT_EPOCH":14015,"BSTAR":0,"MEAN_MOTION_DOT":-3.03e-6,"MEAN_MOTION_DDOT":0},{"OBJECT_NAME":"GORIZONT 10","OBJECT_ID":"1984-078A","EPOCH":"2026-03-14T18:04:24.091968","MEAN_MOTION":1.00198867,"ECCENTRICITY":0.00038164,"INCLINATION":9.0619,"RA_OF_ASC_NODE":313.9808,"ARG_OF_PERICENTER":342.2854,"MEAN_ANOMALY":358.8471,"EPHEMERIS_TYPE":0,"CLASSIFICATION_TYPE":"U","NORAD_CAT_ID":15144,"ELEMENT_SET_NO":999,"REV_AT_EPOCH":15362,"BSTAR":0,"MEAN_MOTION_DOT":1.19e-6,"MEAN_MOTION_DDOT":0},{"OBJECT_NAME":"HIMAWARI-3 (GMS-3)","OBJECT_ID":"1984-080A","EPOCH":"2026-03-14T21:46:38.692992","MEAN_MOTION":0.99839877,"ECCENTRICITY":0.00042323,"INCLINATION":10.7692,"RA_OF_ASC_NODE":324.2689,"ARG_OF_PERICENTER":123.5707,"MEAN_ANOMALY":51.7179,"EPHEMERIS_TYPE":0,"CLASSIFICATION_TYPE":"U","NORAD_CAT_ID":15152,"ELEMENT_SET_NO":999,"REV_AT_EPOCH":15170,"BSTAR":0,"MEAN_MOTION_DOT":-9.0e-7,"MEAN_MOTION_DDOT":0},{"OBJECT_NAME":"SL-12 R/B(2)","OBJECT_ID":"1984-078F","EPOCH":"2026-03-14T17:19:11.125056","MEAN_MOTION":1.00345745,"ECCENTRICITY":0.00207104,"INCLINATION":9.146,"RA_OF_ASC_NODE":314.3471,"ARG_OF_PERICENTER":212.6041,"MEAN_ANOMALY":1.8117,"EPHEMERIS_TYPE":0,"CLASSIFICATION_TYPE":"U","NORAD_CAT_ID":15181,"ELEMENT_SET_NO":999,"REV_AT_EPOCH":12206,"BSTAR":0,"MEAN_MOTION_DOT":-3.01e-6,"MEAN_MOTION_DDOT":0},{"OBJECT_NAME":"TELSTAR 302","OBJECT_ID":"1984-093D","EPOCH":"2026-03-12T12:43:57.799776","MEAN_MOTION":0.99787928,"ECCENTRICITY":9.77e-5,"INCLINATION":14.1844,"RA_OF_ASC_NODE":346.0811,"ARG_OF_PERICENTER":213.4806,"MEAN_ANOMALY":313.1381,"EPHEMERIS_TYPE":0,"CLASSIFICATION_TYPE":"U","NORAD_CAT_ID":15237,"ELEMENT_SET_NO":999,"REV_AT_EPOCH":4547,"BSTAR":0,"MEAN_MOTION_DOT":-2.78e-6,"MEAN_MOTION_DDOT":0},{"OBJECT_NAME":"GALAXY 3 (G-3)","OBJECT_ID":"1984-101A","EPOCH":"2026-03-14T08:56:30.488640","MEAN_MOTION":0.99844687,"ECCENTRICITY":0.000648,"INCLINATION":14.1516,"RA_OF_ASC_NODE":345.8101,"ARG_OF_PERICENTER":19.6885,"MEAN_ANOMALY":130.385,"EPHEMERIS_TYPE":0,"CLASSIFICATION_TYPE":"U","NORAD_CAT_ID":15308,"ELEMENT_SET_NO":999,"REV_AT_EPOCH":4553,"BSTAR":0,"MEAN_MOTION_DOT":2.3e-7,"MEAN_MOTION_DDOT":0},{"OBJECT_NAME":"ZHONGXING-5R","OBJECT_ID":"1984-114A","EPOCH":"2026-03-11T19:46:57.722880","MEAN_MOTION":0.99760538,"ECCENTRICITY":0.0006107,"INCLINATION":14.6859,"RA_OF_ASC_NODE":352.7601,"ARG_OF_PERICENTER":62.6682,"MEAN_ANOMALY":76.2425,"EPHEMERIS_TYPE":0,"CLASSIFICATION_TYPE":"U","NORAD_CAT_ID":15385,"ELEMENT_SET_NO":999,"REV_AT_EPOCH":12600,"BSTAR":0,"MEAN_MOTION_DOT":5.6e-7,"MEAN_MOTION_DDOT":0},{"OBJECT_NAME":"GORIZONT 11","OBJECT_ID":"1985-007A","EPOCH":"2026-03-14T22:06:19.863072","MEAN_MOTION":1.00251577,"ECCENTRICITY":0.00032272,"INCLINATION":9.3276,"RA_OF_ASC_NODE":316.1401,"ARG_OF_PERICENTER":295.7308,"MEAN_ANOMALY":231.8988,"EPHEMERIS_TYPE":0,"CLASSIFICATION_TYPE":"U","NORAD_CAT_ID":15484,"ELEMENT_SET_NO":999,"REV_AT_EPOCH":15168,"BSTAR":0,"MEAN_MOTION_DOT":-1.7e-6,"MEAN_MOTION_DDOT":0},{"OBJECT_NAME":"ARABSAT-1A","OBJECT_ID":"1985-015A","EPOCH":"2026-03-14T15:51:29.334816","MEAN_MOTION":1.00168032,"ECCENTRICITY":0.00294723,"INCLINATION":11.952,"RA_OF_ASC_NODE":331.8916,"ARG_OF_PERICENTER":240.6457,"MEAN_ANOMALY":303.5411,"EPHEMERIS_TYPE":0,"CLASSIFICATION_TYPE":"U","NORAD_CAT_ID":15560,"ELEMENT_SET_NO":999,"REV_AT_EPOCH":12506,"BSTAR":0,"MEAN_MOTION_DOT":-3.28e-6,"MEAN_MOTION_DDOT":0}]
