EKRAN 11                
1 14377U 83100A   26073.10526661 -.00000286  00000+0  00000+0 0  9994
2 14377   7.9719 305.1747 0003994 350.1177   9.8264  1.00310512 46421
INTELSAT 507            
1 14421U 83105A   26073.27659861  .00000058  00000+0  00000+0 0  9992
2 14421  12.0833 331.7750 0003551  51.8696 126.9860  0.99690251136289
RADUGA 14               
1 14725U 84016A   26073.82564590 -.00000072  00000+0  00000+0 0  9993
2 14725   8.7526 311.4161 0000687 117.2139 112.8604  1.00298047117159
COSMOS 1540             
1 14783U 84022A   26073.89035955 -.00000073  00000+0  00000+0 0  9990
2 14783   9.5183 305.2828 0007571 301.2762 318.7593  1.00283018120079
COSMOS 1546             
1 14867U 84031A   26073.82725111 -.00000102  00000+0  00000+0 0  9999
2 14867   8.8580 312.0640 0025248  13.5862 220.4603  1.00257434 46428
STTW-T2                 
1 14899U 84035A   26073.52391524 -.00000321  00000+0  00000+0 0  9995
2 14899   9.6181 318.4942 0005568 195.5351 341.5020  1.00264525 46428
GORIZONT 9              
1 14940U 84041A   26073.82155910 -.00000203  00000+0  00000+0 0  9998
2 14940   8.9265 312.9366 0005694 296.5224 303.8305  1.00316356120992
ZHONGXING-5             
1 14985U 84049A   26073.36755897 -.00000255  00000+0  00000+0 0  9991
2 14985  14.3903 349.0303 0009621 249.9502 355.7669  0.99985785130353
RADUGA 15               
1 15057U 84063A   26073.70406039 -.00000303  00000+0  00000+0 0  9991
2 15057   8.9117 312.4016 0001810 251.2898 323.0239  1.00181635140156
GORIZONT 10             
1 15144U 84078A   26073.75305662  .00000119  00000+0  00000+0 0  9993
2 15144   9.0619 313.9808 0003816 342.2854 358.8471  1.00198867153623
HIMAWARI-3 (GMS-3)      
1 15152U 84080A   26073.90739228 -.00000090  00000+0  00000+0 0  9990
2 15152  10.7692 324.2689 0004232 123.5707  51.7179  0.99839877151705
SL-12 R/B(2)            
1 15181U 84078F   26073.72165654 -.00000301  00000+0  00000+0 0  9990
2 15181   9.1460 314.3471 0020710 212.6041   1.8117  1.00345745122065
TELSTAR 302             
1 15237U 84093D   26071.53053009 -.00000278  00000+0  00000+0 0  9999
2 15237  14.1844 346.0811 0000977 213.4806 313.1381  0.99787928 45471
GALAXY 3 (G-3)          
1 15308U 84101A   26073.37257510  .00000023  00000+0  00000+0 0  9992
2 15308  14.1516 345.8101 0006480  19.6885 130.3850  0.99844687 45536
ZHONGXING-5R            
1 15385U 84114A   26070.82427920  .00000056  00000+0  00000+0 0  9998
2 15385  14.6859 352.7601 0006107  62.6682  76.2425  0.99760538126007
GORIZONT 11             
1 15484U 85007A   26073.92106323 -.00000170  00000+0  00000+0 0  9993
2 15484   9.3276 316.1401 0003227 295.7308 231.8988  1.00251577151683
ARABSAT-1A              
1 15560U 85015A   26073.66075619 -.00000328  00000+0  00000+0 0  9996
2 15560  11.9520 331.8916 0029472 240.6457 303.5411  1.00168032125062
